CCSDS_OEM_VERS = 2.0  
CREATION_DATE  = 2026-03-24T10:47:18
ORIGINATOR     = ESOC/OPS-GFA                            
 
 



META_START
OBJECT_NAME          = LISA                                    
OBJECT_ID            = -1000                                   
CENTER_NAME          = SUN                     
REF_FRAME            = EME2000 
TIME_SYSTEM          = TCB
START_TIME           = 2036-12-23T00:00:30.346418            
STOP_TIME            = 2047-09-06T16:26:23.998695            
INTERPOLATION        = HERMITE                                 
INTERPOLATION_DEGREE = 7                                       
META_STOP

2039-12-11T08:57:01.187900     7.42446804029694945e+07    1.19039903440393925e+08    5.08542073996380419e+07   -2.58410621819302690e+01    1.36470427534939613e+01    6.14205877392174404e+00   -2.96515340028144019e-06   -4.75396505454884453e-06   -2.03090795010402258e-06
2039-12-12T05:11:37.109848     7.23536825832782835e+07    1.20021786250576049e+08    5.12964072513514310e+07   -2.60543833473966835e+01    1.32991895725234386e+01    5.99342178150398297e+00   -2.88911313427854382e-06   -4.79231295473067013e-06   -2.04819815200386734e-06
2039-12-13T01:26:13.031795     7.04473412139998674e+07    1.20978217929986507e+08    5.17277294829124957e+07   -2.62621414149225032e+01    1.29485795295928696e+01    5.84354090585236996e+00   -2.81248308662707503e-06   -4.82962286636394553e-06   -2.06504439847900352e-06
2039-12-13T21:40:48.953743     6.85260632569289804e+07    1.21909000320666969e+08    5.21480846219194159e+07   -2.64642940230346895e+01    1.25952885405412438e+01    5.69244862376658567e+00   -2.73528026699929102e-06   -4.86588736836442851e-06   -2.08144332258252691e-06
2039-12-14T17:55:24.875691     6.65902587464947924e+07    1.22813940948457062e+08    5.25573856284007803e+07   -2.66608000519240917e+01    1.22393930560305044e+01    5.54017765483956737e+00   -2.65752173803487599e-06   -4.90109919917794015e-06   -2.09739162593224577e-06
2039-12-15T14:12:34.025354     6.46362262255648226e+07    1.23694673298714414e+08    5.29563732028251961e+07   -2.68520148354810679e+01    1.18802138064800431e+01    5.38643719242150709e+00   -2.57905982351549711e-06   -4.93532259136067287e-06   -2.11291845392818299e-06
2039-12-16T10:29:43.175018     6.26684391540754437e+07    1.24549084798729718e+08    5.33440922515777275e+07   -2.70374804024030340e+01    1.15185743031890517e+01    5.23157954864248964e+00   -2.50007474864643001e-06   -4.96847544438051115e-06   -2.12798663090138471e-06
2039-12-17T06:46:52.324682     6.06873187677378356e+07    1.25376998671582252e+08    5.37204624277884141e+07   -2.72171591885888660e+01    1.11545529577541132e+01    5.07563832423596750e+00   -2.42058410218441293e-06   -5.00055145909940633e-06   -2.14259327031566120e-06
2039-12-18T03:04:01.474345     5.86932890000011027e+07    1.26178243818460062e+08    5.40854058179597259e+07   -2.73910149168505299e+01    1.07882286352562211e+01    4.91864732792920112e+00   -2.34060553998027034e-06   -5.03154452054938276e-06   -2.15673556475018646e-06
2039-12-18T23:21:10.624009     5.66867763876665458e+07    1.26952654907399744e+08    5.44388469812369198e+07   -2.75590126019551214e+01    1.04196806397612871e+01    4.76064057021241993e+00   -2.26015678854873752e-06   -5.06144872568905112e-06   -2.17041079788228190e-06
2039-12-19T19:38:19.773673     5.46682099761460871e+07    1.27700072434095711e+08    5.47807129765913561e+07   -2.77211185558673563e+01    1.00489886979948082e+01    4.60165225631943642e+00   -2.17925564704866096e-06   -5.09025840573873384e-06   -2.18361635413796809e-06
2039-12-20T15:55:28.923336     5.26380212243461832e+07    1.28420342760619566e+08    5.51109333804451078e+07   -2.78773003930787127e+01    9.67623294158306102e+00    4.44171677858853009e+00   -2.09791998767526614e-06   -5.11796814310247671e-06   -2.19634972601359679e-06
2039-12-21T12:12:38.073000     5.05966439091764092e+07    1.29113318137880415e+08    5.54294402972611040e+07   -2.80275270359071307e+01    9.30149388825640777e+00    4.28086870837376221e+00   -2.01616775446198107e-06   -5.14457278287003539e-06   -2.20860851906577169e-06
2039-12-22T08:29:47.222664     4.85445140296816230e+07    1.29778856717656970e+08    5.57361683656224981e+07   -2.81717687196512614e+01    8.92485242241023258e+00    4.11914278767692377e+00   -1.93401696049564825e-06   -5.17006743890891685e-06   -2.22039045457378885e-06
2039-12-23T04:46:56.372327     4.64820697107966617e+07    1.30416822560032174e+08    5.60310547623254061e+07   -2.83099969974831360e+01    8.54638977541914535e+00    3.95657392067026947e+00   -1.85148568353587161e-06   -5.19444749452463643e-06   -2.23169336986532731e-06
2039-12-24T01:04:05.521991     4.44097511067224741e+07    1.31027085642060995e+08    5.63140392070088759e+07   -2.84421847449632459e+01    8.16618750609994137e+00    3.79319716528023498e+00   -1.76859206005483976e-06   -5.21770859772785857e-06   -2.24251521632181180e-06
2039-12-24T21:21:14.671655     4.23280003039228171e+07    1.31609521873502389e+08    5.65850639698460549e+07   -2.85683061640619620e+01    7.78432748171892097e+00    3.62904772500230077e+00   -1.68535427768197930e-06   -5.23984665106689033e-06   -2.25285405504586593e-06
2039-12-25T17:38:23.821318     4.02372612237403244e+07    1.32164013125445932e+08    5.68440738848205060e+07   -2.86883367865711989e+01    7.40089185993917553e+00    3.46416094111719364e+00   -1.60179056605933226e-06   -5.26085779604919367e-06   -2.26270805020076135e-06
2039-12-26T13:55:32.970982     3.81379795246309265e+07    1.32690447277664125e+08    5.70910163711117581e+07   -2.88022534767903409e+01    7.01596307210326309e+00    3.29857228547858661e+00   -1.51791918610367370e-06   -5.28073839213721557e-06   -2.27207546001572702e-06
2039-12-27T10:12:42.120646     3.60306025040159225e+07    1.33188718290520906e+08    5.73258414651137441e+07   -2.89100344333702495e+01    6.62962380824705200e+00    3.13231735404249001e+00   -1.43375841770179175e-06   -5.29948499036926890e-06   -2.28095462547879924e-06
2039-12-28T06:29:51.270309     3.39155789997498021e+07    1.33658726307267338e+08    5.75485018656104356e+07   -2.90116591901994241e+01    6.24195700424007427e+00    2.96543186130851222e+00   -1.34932654575972014e-06   -5.31709430145531140e-06   -2.28934395665292861e-06
2039-12-29T02:47:40.127915     3.17922035274111927e+07    1.34100609879882976e+08    5.77590639546408355e+07   -2.91071588389946392e+01    5.85283402217403204e+00    2.79786040656595780e+00   -1.26459597254463745e-06   -5.33357255957125865e-06   -2.29724640272403845e-06
2039-12-29T23:05:28.985521     2.96620764090285152e+07    1.34514017725158453e+08    5.79573611385783404e+07   -2.91964586415103113e+01    5.46254876911520970e+00    2.62972953404337551e+00   -1.17963088470047434e-06   -5.34890694701338698e-06   -2.30465583232918370e-06
2039-12-30T19:23:17.843127     2.75256512578266636e+07    1.34898868003673255e+08    5.81433538719822913e+07   -2.92795421361872990e+01    5.07118490946495371e+00    2.46107530997631230e+00   -1.09444973736538075e-06   -5.36309521813615268e-06   -2.31157110576076278e-06
2039-12-31T15:41:06.700733     2.53833828579199687e+07    1.35255084933084637e+08    5.83170052207004651e+07   -2.93563942104815858e+01    4.67882626509611121e+00    2.29193388101850060e+00   -1.00907099943983387e-06   -5.37613531350362605e-06   -2.31799116379411277e-06
2040-01-01T11:58:55.558339     2.32357270516678505e+07    1.35582598853010237e+08    5.84782808909777552e+07   -2.94270011017616682e+01    4.28555680070575740e+00    2.12234146790937128e+00   -9.23513150551803406e-07   -5.38802538736151853e-06   -2.32391503960752964e-06
2040-01-02T08:16:44.415945     2.10831406335937195e+07    1.35881346263019919e+08    5.86271492468650937e+07   -2.94913503979746885e+01    3.89146060736754595e+00    1.95233435836009583e+00   -8.37794677796700673e-07   -5.39876382954194000e-06   -2.32934186829437542e-06
2040-01-03T04:34:33.273551     1.89260812494094595e+07    1.36151269839345872e+08    5.87635813183698803e+07   -2.95494310380660963e+01    3.49662188468670543e+00    1.78194889933247058e+00   -7.51934072251905889e-07   -5.40834928180792025e-06   -2.33427089397044270e-06
2040-01-04T00:52:22.131157     1.67650072987072356e+07    1.36392318435914099e+08    5.88875508027862981e+07   -2.96012333121363369e+01    3.10112492196422940e+00    1.61122148888647465e+00   -6.65949825263731918e-07   -5.41678064862598240e-06   -2.33870147447146425e-06
2040-01-04T21:10:10.988763     1.46003778398803622e+07    1.36604447075300336e+08    5.89990340616439432e+07   -2.96467488613180556e+01    2.70505407877686554e+00    1.44018856777235893e+00   -5.79860424510646050e-07   -5.42405710238755220e-06   -2.34263308364972940e-06
2040-01-05T17:27:59.846369     1.24326524958351105e+07    1.36787616935213327e+08    5.90980101157132536e+07   -2.96859706773572256e+01    2.30849376537943529e+00    1.26888661094308253e+00   -4.93684349836596136e-07   -5.43017808304536658e-06   -2.34606531125527448e-06
2040-01-06T13:45:48.703975     1.02622913590548672e+07    1.36941795336108387e+08    5.91844606405060217e+07   -2.97188931018817861e+01    1.91152842333609119e+00    1.09735211916296382e+00   -4.07440068862196408e-07   -5.43514329221213578e-06   -2.34899786042190176e-06
2040-01-07T10:03:37.561581     8.08975489457890391e+06    1.37066955735534698e+08    5.92583699647095054e+07   -2.97455118253411399e+01    1.51424250678704553e+00    9.25621610888370583e-01   -3.21146032369766509e-07   -5.43895268168197219e-06   -2.35143054274115265e-06
2040-01-08T06:21:26.419187     5.91550383945698664e+06    1.37163077734818786e+08    5.93197250739925280e+07   -2.97658238856000885e+01    1.11672046475740760e+00    7.53731614596280686e-01   -2.34820669452591117e-07   -5.44160643635725369e-06   -2.35336327091676806e-06
